[{"OBJECT_NAME":"SITRO-AIS 5 (KATYS)","OBJECT_ID":"2023-091L","EPOCH":"2026-03-09T22:36:44.932608","MEAN_MOTION":15.27079182,"ECCENTRICITY":0.00133776,"INCLINATION":97.5176,"RA_OF_ASC_NODE":132.0172,"ARG_OF_PERICENTER":94.5677,"MEAN_ANOMALY":265.709,"EPHEMERIS_TYPE":0,"CLASSIFICATION_TYPE":"U","NORAD_CAT_ID":57176,"ELEMENT_SET_NO":999,"REV_AT_EPOCH":14918,"BSTAR":0.00057530772,"MEAN_MOTION_DOT":0.00015262,"MEAN_MOTION_DDOT":0},{"OBJECT_NAME":"STARLINK-35839","OBJECT_ID":"2025-303G","EPOCH":"2026-03-09T01:21:46.920384","MEAN_MOTION":15.27606005,"ECCENTRICITY":0.00034148,"INCLINATION":43.0022,"RA_OF_ASC_NODE":314.7014,"ARG_OF_PERICENTER":257.7968,"MEAN_ANOMALY":102.2502,"EPHEMERIS_TYPE":0,"CLASSIFICATION_TYPE":"U","NORAD_CAT_ID":67169,"ELEMENT_SET_NO":999,"REV_AT_EPOCH":1263,"BSTAR":0.0010184918,"MEAN_MOTION_DOT":0.00027896,"MEAN_MOTION_DDOT":0}]
